[{"OBJECT_NAME":"XCUBE-1","OBJECT_ID":"2024-247Z","EPOCH":"2026-03-09T11:35:28.885344","MEAN_MOTION":15.27910558,"ECCENTRICITY":0.00052355,"INCLINATION":44.9938,"RA_OF_ASC_NODE":117.7807,"ARG_OF_PERICENTER":331.1499,"MEAN_ANOMALY":28.9094,"EPHEMERIS_TYPE":0,"CLASSIFICATION_TYPE":"U","NORAD_CAT_ID":62400,"ELEMENT_SET_NO":999,"REV_AT_EPOCH":6770,"BSTAR":0.00036224252,"MEAN_MOTION_DOT":9.773e-5,"MEAN_MOTION_DDOT":0},{"OBJECT_NAME":"STARLINK-32827","OBJECT_ID":"2025-034Q","EPOCH":"2026-03-09T20:09:30.396960","MEAN_MOTION":15.30196539,"ECCENTRICITY":8.076e-5,"INCLINATION":53.1572,"RA_OF_ASC_NODE":270.6511,"ARG_OF_PERICENTER":87.7595,"MEAN_ANOMALY":272.3499,"EPHEMERIS_TYPE":0,"CLASSIFICATION_TYPE":"U","NORAD_CAT_ID":63043,"ELEMENT_SET_NO":999,"REV_AT_EPOCH":5892,"BSTAR":0.00065380866,"MEAN_MOTION_DOT":0.00019052,"MEAN_MOTION_DDOT":0}]
